{
    "links": {
        "self": "http://www.neowsapp.com/rest/v1/neo/3763477?api_key=iIulBulltgU6a56xZRHN4H3l9WmuAYTsLGpBGhQ2"
    },
    "id": "3763477",
    "neo_reference_id": "3763477",
    "name": "(2016 VN3)",
    "designation": "2016 VN3",
    "nasa_jpl_url": "http://ssd.jpl.nasa.gov/sbdb.cgi?sstr=3763477",
    "absolute_magnitude_h": 26.2,
    "estimated_diameter": {
        "kilometers": {
            "estimated_diameter_min": 0.0152951935,
            "estimated_diameter_max": 0.0342010925
        },
        "meters": {
            "estimated_diameter_min": 15.2951935344,
            "estimated_diameter_max": 34.201092472
        },
        "miles": {
            "estimated_diameter_min": 0.0095039897,
            "estimated_diameter_max": 0.021251567
        },
        "feet": {
            "estimated_diameter_min": 50.1810827555,
            "estimated_diameter_max": 112.2083122258
        }
    },
    "is_potentially_hazardous_asteroid": false,
    "close_approach_data": [
        {
            "close_approach_date": "1949-04-20",
            "close_approach_date_full": "1949-Apr-20 17:40",
            "epoch_date_close_approach": -653206800000,
            "relative_velocity": {
                "kilometers_per_second": "22.5407994785",
                "kilometers_per_hour": "81146.87812269",
                "miles_per_hour": "50421.5143535126"
            },
            "miss_distance": {
                "astronomical": "0.1942024672",
                "lunar": "75.5447597408",
                "kilometers": "29052275.441864864",
                "miles": "18052246.8657645632"
            },
            "orbiting_body": "Earth"
        },
        {
            "close_approach_date": "2016-11-12",
            "close_approach_date_full": "2016-Nov-12 21:39",
            "epoch_date_close_approach": 1478986740000,
            "relative_velocity": {
                "kilometers_per_second": "17.6009205541",
                "kilometers_per_hour": "63363.3139946351",
                "miles_per_hour": "39371.4991873887"
            },
            "miss_distance": {
                "astronomical": "0.0157161376",
                "lunar": "6.1135775264",
                "kilometers": "2351100.709586912",
                "miles": "1460906.2378149056"
            },
            "orbiting_body": "Earth"
        }
    ],
    "orbital_data": {
        "orbit_id": "3",
        "orbit_determination_date": "2017-04-06 08:22:19",
        "first_observation_date": "2016-11-08",
        "last_observation_date": "2016-11-11",
        "data_arc_in_days": 3,
        "observations_used": 37,
        "orbit_uncertainty": "8",
        "minimum_orbit_intersection": ".0156186",
        "jupiter_tisserand_invariant": "3.538",
        "epoch_osculation": "2457701.5",
        "eccentricity": ".6412165481762826",
        "semi_major_axis": "1.999602402414374",
        "inclination": "10.22783422517296",
        "ascending_node_longitude": "46.11207545999903",
        "orbital_period": "1032.794464737944",
        "perihelion_distance": ".7174242522132271",
        "perihelion_argument": "78.13888184525939",
        "aphelion_distance": "3.281780552615521",
        "perihelion_time": "2457750.097438818694",
        "mean_anomaly": "343.0604456432975",
        "mean_motion": ".3485688704686703",
        "equinox": "J2000",
        "orbit_class": {
            "orbit_class_type": "APO",
            "orbit_class_description": "Near-Earth asteroid orbits which cross the Earth’s orbit similar to that of 1862 Apollo",
            "orbit_class_range": "a (semi-major axis) > 1.0 AU; q (perihelion) < 1.017 AU"
        }
    },
    "is_sentry_object": false
}